ONEWEB-0685             
1 54679U 22166AP  24180.58220737 -.00000328  00000+0 -82470-3 0  9995
2 54679  87.9280  27.0375 0002019  93.6885 266.4479 13.21825409 76480
ONEWEB-0712             
1 54680U 22166AQ  24180.61565416  .00000325  00000+0  81743-3 0  9994
2 54680  87.9100  11.8372 0002073  77.4524 282.6839 13.16595737 77967
ONEWEB-0714             
1 54681U 22166AR  24180.58852758  .00000022  00000+0  22663-4 0  9990
2 54681  87.9282  27.0226 0002077  94.0046 266.1326 13.21825525 77071
ONEWEB-0532             
1 55140U 23004A   24180.90462551  .00000073  00000+0  15459-3 0  9997
2 55140  87.9172 148.8592 0001592  92.5628 267.5686 13.17648400 72998
ONEWEB-0533             
1 55141U 23004B   24180.38846604  .00000366  00000+0  98289-3 0  9992
2 55141  87.8953 133.7691 0002179  84.7235 275.4142 13.12447276 73772
ONEWEB-0541             
1 55142U 23004C   24180.46673128  .00000189  00000+0  49642-3 0  9993
2 55142  87.8965 164.0825 0002000  86.7527 273.3830 13.11419312 71746
ONEWEB-0543             
1 55143U 23004D   24180.84142133  .00000001  00000+0 -29243-4 0  9993
2 55143  87.9145 118.5525 0002396  77.3477 282.7923 13.18685114 75021
ONEWEB-0544             
1 55144U 23004E   24180.83508306  .00000014  00000+0  29097-5 0  9992
2 55144  87.9147 118.5388 0001953  77.1042 283.0309 13.18685206 75029
